address;city;postal_code;gps_lat;gps_long;name
9, rue du Commandant Rivière;Paris;75008;48,8726666;2,308209896;Amber
161 Rue de Bourgogne;Orléans;45000;47,9002911;1,911674;LE RAJISTHAN
17 Rue Pierre Bouvier;Fontaines-sur-Saône;69270;45,8343384;4,8485014;Au thym et à l'ail
442 Rue de Lille;Roncq;59223;50,7672452;3,1220484;Aux Indes Club
7, route du Pontel;Jouars-Pontchartrain;78760;48,80283348;1,899610043;Le Bistro Gourmand
9 Rue Henri Drussy;Blois;41000;47,5868406;1,3360926;Au Coin D'Table
75 Av. des Champs-Élysées;Paris;75008;48,870814;2,3030644;Ladurée Paris Champs-Elysées
Boulevard des Pyrénées;Oloron-Sainte-Marie;64400;43,19090988;-0,62026;Le Pastoral - Alysson Hôtel
1 Avenue de L'Industrie;Rebais;77510;48,8506988;3,2394885;La Fontaine Gourmande
51, Rue du Général de Gaulle;Kirchheim;67520;48,60769168;7,494410038;L'Arbre Vert
25 Avenue de Villeneuve Saint-Georges;Choisy-le-Roi;94600;48,7652265;2,4158522;Le Phare de Seine
17 Rue Barbès;Ivry-sur-Seine;94200;48,817335;2,3726315;La Ptite Maison
6 Allée Megevie;Gradignan;33170;44,7743765;-0,6406578;La Villa Bersol
29, route de Banyuls;Portvendres;66660;42,51301226;3,109479904;Le Cèdre
3, rue Raymond Grimaud;Blagnac;31700;43,63851569;1,375249982;La Baie d'Halong
11, Rue de la Devise;Bordeaux;33000;44,83995;-0,57105;L'Encoche
48 Rue Monsieur le Prince;Paris;75006;48,8483842;2,3401478;Les Domaines Qui Montent
66 Rue de Bonnel;Lyon;69003;45,7618005;4,8499478;Le Bistrot Bonnel
62, rue Pergolèse;Paris;75016;48,87325873;2,281069994;Pergo Café
18, rue du Faubourg-de-Saverne;Strasbourg;67000;48,58566955;7,740019798;Pho Kim Saigon
1 Rue Jean Bologne;Paris;75016;48,8565178;2,2798283;Le Bistrot des Vignes
Col de l'Encrenaz;"La Côte-d'Arbroz";74110;46,171496;6,630082;Alt.1490 Exclusif
10, rue Rougemont;Paris;75009;48,87181;2,34607;Nero & Rosso
1 Rue Legrand;Malakoff;92240;48,824223;2,303989;Par faim de saveurs
8, boulevard du Maréchal Joffre;Rueil-Malmaison;92500;48,87944311;2,183310032;Toyama
13 Rue Royale;Annecy;74000;45,8998434;6,1229439;Semper Fi
4 Chemin des Pierres de Moulin;Le Rouret;06650;43,6749743;7,0059825;Bottle Cafe
9 Rue de Crussol;Paris;75011;48,8642012;2,3675916;Cellar
123 Rue Oberkampf;Paris;75011;48,8661874;2,3790752;VegArt
42 Rue des Acacias;Paris;75017;48,8772097;2,2927457;Zoé à Beyrouth
64 rue de Gand;Lille;59000;50,64294873;3,06795001;La Crêperie de Lille
484 Avenue de la République;La Roquette-sur-Siagne;06550;43,577756;6,9508028;L'Intemporelle
Ferme auberge de treh, markstein;Kruth;68820;47,9308819;6,965551;Ferme Auberge du Treh
6 Rue de la Salle;Saint-Germain-en-Laye;78100;48,8970185;2,0929999;La Rôtisserie du Château
10 Rue Chef de ville;La Rochelle;17000;46,1583808;-1,1543659;L atelier des cousins
"34 Route de Port d'Alon";Saint-Cyr-sur-Mer;83270;43,1658573;5,7151488;Le latino
125 Route du Verdon;Arsac;33460;44,9824734;-0,7393491;Clos d'Arsac
15 Rue de Wattignies;Paris;75012;48,8367008;2,393377;Le Cèdre Oriental
65 Avenue Paul Vaillant Couturier;Arcueil;94110;48,7992535;2,3450453;L' Arena
85 Rue de la Monnaie;Lille;59800;50,6416246;3,0616772;Red Coffee Bar
99 Avenue de Stalingrad;Arles;13200;43,6906596;4,6372625;chez maely
1 Rue de Billancourt;Boulogne-Billancourt;92100;48,8445392;2,234618;Tant qu'il y aura des Bretons
29, bd Kennedy;Cagnes-sur-Mer;06800;43,65124957;7,152029991;Fleur de lotus
18, Grande Rue;Marly-le-Roi;78160;48,86662;2,09488;L'Ardoise
6 Rue de la Sourdière;Paris;75001;48,8653678;2,3318549;Jin
95 Boulevard Longchamp;Marseille;13001;43,3028625;5,3907531;Pouce
ZAC les Terrages;Viry-Noureuil;02300;49,639016;3,252398;La Boucherie Viry
17, rue Roger Bouvry;Seclin;59113;50,54906198;3,028939962;Auberge du Forgeron
72, quai de l'hôtel de ville;Paris;75004;48,85451027;2,354629993;Bel Canto
80 Avenue Gambetta;Maisons-Alfort;94700;48,8098257;2,444395;La Rôtisserie
87 Rue Jean de la Fontaine;Sainte-Savine;10300;48,2991388;4,0445411;"L&apos;Espérance le restaurant du motel Savinien"
39 Rue Saint-Jean;Laon;02000;49,5643157;3,6175454;Le Trappist
29, rue Remparts d'Ainay;Lyon;69002;45,75273369;4,831120014;Le Poêlon d'Or
524 Chemin du Praz;Les Contamines-Montjoie;74170;45,8021365;6,7244987;Le Chalet du Lac
Allée Loïc Caradec;Vannes;56000;47,636113;-2,762208;Le Piano Barge
13 Rue Lamartine;Paris;75009;48,8765039;2,3421588;La Girouette Barzingue
10 Place Grenette;Grenoble;38000;45,1909275;5,7271295;"Hippopotamus	GRENOBLE"
2 Avenue Honoré Serres;Toulouse;31000;43,6119736;1,4387498;Le Classic Café
13 Rue Pierre Bray;Neuilly-sous-Clermont;60290;49,3486541;2,4286917;Maharaja
35 Rue Mauconseil;Paris;75001;48,8640181;2,3468565;Les Merveilles du Maroc
11, rue de Saint-Julien;Saint-Julien-Beychevelle;33250;45,16502216;-0,740580022;Le Saint-Julien
1, rue de Billancourt;Boulogne-Billancourt;92100;48,84464;2,23454;Tant qu'il y aura des Bretons
154 Boulevard Haussmann;Paris;75008;48,8756529;2,3112716;Le 154 Restaurant
121 Rue de Vaugirard;Paris;75015;48,8446115;2,3187732;Tonkiyo
39, rue Saint Jean;Lyon;69005;45,76133;4,82745;Auberge Rabelais
3, rue Jean-Pierre Timbaud;Montigny-le-Bretonneux;78180;48,79249072;2,036629915;Best Western Paris Saint-Quentin
7 Avenue Gambetta;Paris;75020;48,8635228;2,3893052;Au Nid Créole
Chemin des Planchettes;Pierrelatte;26700;44,3605605;4,7130576;Ô Trusquin par Cédric Denaux
4, rue Eugène Giraud;Valbonne;06560;43,64148064;7,009439945;Le Cadran Solaire
31 Avenue de la Bourdonnais;Paris;75007;48,8588961;2,2985582;Al Bacio-bourdonnais
120, rue Saint-Maur;Paris;75011;48,86747;2,37595;Luangpra
Rue du 8 Mai 1945;Mantes-la-Ville;78711;48,9761228;1,7188881;Buffalo Grill - Mantes la Ville
70 bis, boulevard Auguste Blanqui;Paris;75013;48,83035854;2,347690105;Havane Café
188 Grand Rue;Poitiers;86000;46,5828202;0,3452342;L'essentiel selon Pierric Casadebaig
41 Avenue du Général de Gaulle;Saint-Mandé;94160;48,8415606;2,4177587;Délice indien
21 Rue du Maréchal de Lattre de Tassigny;Arcachon;33120;44,6613495;-1,1725503;La Saison 2
2, boulevard des Écoles;Bailly-Romainvilliers;77700;48,8500373;2,819269896;Ô Sàn Sushi
30, Quai Fernand Crouan;Nantes;44200;47,20739;-1,56483;O'Deck
3 Rue Sainte-Beuve;Paris;75006;48,844175;2,3299074;Le Timbre
Rue Camille Flammarion;Carcassonne;11000;43,20899062;2,386670113;Campanile Carcassonne
137 Rue Saint-Dominique;Paris;75007;48,858092;2,3017212;Felicita
68 Avenue Gambetta;Paris;75020;48,8688587;2,4021733;Ristorante Prima
38 Rue Principale;Heiligenstein;67140;48,4234211;7,4504929;au raisin d'or
"55 Rue du Château d'Eau";Paris;75010;48,8723265;2,3554997;El Sabor Cubano
5, rue Lazare-Carnot;Sète;34200;43,40266124;3,698270082;The Marcel
44 Rue des Tournelles;Paris;75004;48,8558155;2,3674045;L'Ange 20
17, rue du Choiseul;Paris;75002;48,87016752;2,335969925;Shake Eat
9, rue Saint Augustin;Paris;75002;48,86885269;2,337300062;Rani Mahal
7 rue de Jarente;Paris;75004;48,855704;2,362802;La Mangerie
27 Rue Racine;Le Havre;76600;49,4904929;0,1057056;Graine de Sesame
134 Espl. le Cours;Vinon-sur-Verdon;83560;43,7258627;5,8120423;Le Bistrot du Cours
14 place du grand jardin;Vence;06140;43,72182905;7,113649845;SushiMax
33, rue de la Plaine des Bouchers;Strasbourg;67000;48,56939339;7,736989975;Le Double D
16 Le Bourg;Lurcy;01090;46,0629876;4,7822055;Les Voyageurs
4, rue des Faussets;Bordeaux;33000;44,8407613;-0,570439994;Le Grill au Thym
11 Avenue des Minimes;Toulouse;31200;43,6168632;1,4368095;Spice of Bengale
36, rue de Strasbourg;Chalon-sur-Saône;71100;46,77976814;4,860380173;Koki Food and Shop
21 Rue du Grand Pont;Rochefort-du-Gard;30650;43,9740974;4,6877239;Fromagerie Notre Dame
30, patio des Reflets;Courbevoie;92400;48,88976542;2,247560024;Le Tourbillon
Rue Kléber;Auch;32000;43,6496232;0,5888338;Casa bonita
16, boulevard Victor Hugo;Saint-Rémy-de-Provence;13210;43,78748437;4,831500053;L'Estagnol
14 Rue Sauval;Paris;75001;48,86207725;2,342530012;Cuistance
60, rue Armand Caduc;La Réole;33190;44,58165383;-0,039489999;Le Solendo
16 Rue Jean-Jacques Rousseau;Paris;75001;48,862533;2,3408736;Casa Festa
19, avenue de Narbonne;Saint-Laurent-de-la-Cabrerisse;11220;43,08479;2,7003;Le Carignan
8 Rue Abel Hovelacque;Paris;75013;48,8330953;2,3534093;Sun Thai
8, rue Tiphaine;Paris;75015;48,84918132;2,295190096;Vilay
2 Rue Eugène Carrière;Paris;75018;48,8885965;2,3320014;El Tequila Mexicana
1 Rue Orsel;Oullins;69600;45,7164026;4,8101936;oullins sushi
95 cours du Général Leclerc;Langon;33210;44,5526322;-0,2470911;Hôtel-Restaurant Claude Darroze
6 bis Allée des Muletiers;Mordelles;35310;48,0719822;-1,8517065;KATELL LEFEUVRE
6 Passage Brady;Paris;75010;48,8712393;2,3553022;Trésor de Kashmir
23, rue Petit Bonneveau;Poitiers;86000;46,57860805;0,338750005;Le Dos de la Fourchette - Carnot
24 Rue du Général Leclerc;Versailles;78000;48,7989257;2,1264457;Bulldog bar Versailles
9 Place du Marché;Palavas-les-Flots;34250;43,5280761;3,93157;Chez nina
2, rue des Fantasques;Lyon;69001;45,77380262;4,837059975;Au Temps Perdu
70 Rue Vincent Raspail;La Garde;83130;43,1253793;6,009889;Le Bistro
38 Avenue de Lanessan;"Champagne-au-Mont-d'Or";69410;45,7946266;4,7931487;O Platanes
16, cours de Vincennes;Paris;75012;48,84746;2,40039;Au Régal Couscous
30 Avenue Victor Hugo;Les Pavillons-sous-Bois;93320;48,9095389;2,5143247;E-Ban
8, place du Marché Gayot;Strasbourg;67000;48,58275744;7,753479958;La Table du Gayot
177 Rue Sainte-Catherine;Bordeaux;33000;44,8352545;-0,5734663;La Parenthèse
3 Rue Poissonnière;Paris;75002;48,8685929;2,3476397;G.IV
84 Avenue Secrétan;Paris;75019;48,8789713;2,3779063;Sunny
43, rue de Seine;Paris;75006;48,85536616;2,336879969;La Palette
4 Rue Pierre Leroux;Paris;75007;48,8501605;2,3185686;L'INCONNU
27, route de saint Omer;Socx;59380;50,93432022;2,421420097;Au Steger
8, rue Jean Burguet;Bordeaux;33000;44,83444;-0,57815;Sambo's Shop
12 Rue Bourgeot;"L'Haÿ-les-Roses";94240;48,7786656;2,33633;Le Triskel
Restaurant;Montclus;30630;44,26290697;4,44107008;La Magnanerie de Bernas
12 Rue de Charonne;Paris;75011;48,8524872;2,3744304;Le Café du Passage
41, rue de la Rochefoucauld;Paris;75009;48,87983;2,33478;Maria Magdalena
12 Rue Piliers de Tutelle;Bordeaux;33000;44,8414839;-0,5735098;Le Grill Bordelais
3 Rue Charles VII;Nogent-sur-Marne;94130;48,8367769;2,4856965;Sushi vii
175 Grande Rue Charles de Gaulles;Nogent-sur-Marne;94130;48,8357664;2,480569;Sawadikap
26, avenue des Champs Elysées;Paris;75008;48,86944;2,30855;Le Patio des Champs
4 Boulevard de Port-Royal;Paris;75005;48,8371433;2,3509011;Palais de l'Inde
25 Rue Jeanne d'Arc;Saint-Quay-Portrieux;22410;48,6543158;-2,837701;Chez Léo
19 Rue Georges Clemenceau;Saint-Quay-Portrieux;22410;48,6467134;-2,8292969;La Brèche
Route de Murs;Gordes;NULL;43,9202452;5,202583;LE MAS DES HERBES BLANCHES
118 Rue Véron;Alfortville;94140;48,8075285;2,4147322;AlfortGrill
12, quai Marc Seguin;Tournon-sur-Rhône;07300;45,06813518;4,833940029;Le Château
1 Rue Pierre Brossolette;Le Plessis-Bouchard;95130;49,0012879;2,235647;Le Magnolia
25, place de Bethune;Lille;59000;50,63254547;3,062370062;Le Beaurepaire II
3 avenue de la République;Paris;75011;48,86674738;2,367399931;Bistrot Pop
3212 Chemin de Tanvol;Viriat;01440;46,2396662;5,2653447;Bistrot du Boucher - Bourg en Bresse
61, rue des Trois Frères;Paris;75018;48,88562421;2,338219881;Aloy Aloy
52 Rue de Genève;Ferney-Voltaire;01210;46,2526635;6,1150797;Buffalo Grill - Ferney Voltaire
Caillau;Vire-sur-Lot;46700;44,480223;1,101212;Le Caillau
18 Rue de Paris;Charenton-le-Pont;94220;48,8187253;2,4186803;La Maison de Diep
Place Diana;La Grande-Motte;34280;43,5569089;4,0911162;LE CHARIBARI
28 Rue Kuhn;Strasbourg;67000;48,5849832;7,7370001;La Baie Des Anges
9 Place du Concert;Lille;59800;50,6420671;3,06114;La Mezza
10 Rue Brochant;Paris;75017;48,8884274;2,3175723;Le Costaud des Batignolles
103 rue La Boétie;Paris;75008;48,87135184;2,307100058;Matsuri Boétie
79 Rue Saint-Dominique;Paris;75007;48,8595623;2,3086962;Sylvestre - Hôtel Thoumieux
1 Place des Marronniers;Montbazon;37250;47,2873686;0,7134639;L'Evidence
33 Rue Guersant;Paris;75017;48,8816092;2,2887843;Ha La Vie Kosher
6 Boulevard du Général de Gaulle;Draveil;91210;48,6876911;2,3919403;L'Andrea
17 Avenue du Bel air;Paris;75012;48,8463832;2,3969768;srhtbl
Avenue Eugène Donadeï;Saint-Laurent-du-Var;06700;43,6596876;7,1952041;jardin du cap
12 Rue Neuve;Lyon;69002;45,7651065;4,8351653;Buenos Aires
10, route d'Etrez;Montrevel-en-Bresse;01340;46,33639361;5,130129814;Restaurant Léa
22 Rue Merigonde;Castres;81100;43,6021162;2,2537313;La table des Ateliers
10 Allée des Tullistes;Écully;69130;45,7752108;4,7794078;La Table D'à Côté
4 rue Jacques Manuel;Perpignan;66000;42,70040256;2,895430088;Le Boudoir
85 Avenue Kléber;Paris;75116;48,8644788;2,2886045;Histoires
5, avenue Villermont;Nice;06000;43,70896123;7,264589787;Le Bistrot du Marché
74 Quai des Orfèvres;Paris;75001;48,8568278;2,3415504;Les Voyelles
81, rue de Rochechouart;Paris;75009;48,88220513;2,346610069;Au Zaganin - Montmartre
113, grande rue de la Guillotière;Lyon;69007;45,75099023;4,848330021;Bistrot des Maquignons
10, rue des Verriers;Lyon;69007;45,74345414;4,836709976;Vas-y Vas-y
15 Boulevard Denys Puech;Rodez;12000;44,3496986;2,5779962;Le Cèdre
45 Espl. du Maréchal Leclerc;Ardres;62610;50,852876;1,9779416;Chez Fanny
Le Jarier d'Ancenis - D723;Ancenis;44150;47,37787388;-1,141240001;Les Bateliers - Hôtel de la Loire
27 Rue Richer;Paris;75009;48,873903;2,3450565;Les Sardignac
2A, route de Lyon;Brignais;69530;45,67809422;4,771409988;Suelta Verde Lyon Ouest
45/47, rue Albert Rémy;Ris-Orangis;91130;48,6567295;2,407809973;L'étoile de Mer
9 Avenue du Général de Gaulle;Vélizy-Villacoublay;78140;48,7847072;2,183762;LaBulle
2, place Saint Germain;Sully-sur-Loire;45600;47,76652;2,36797;Entre Loire et Sologne
Le Guiben;Camors;56330;47,80018;-3,0096229;Au Coin du Feu
11b Rue Massenet;Nice;06000;43,6960971;7,2638898;Tradiswiss
Place Auguste Baret;Châteauneuf-le-Rouge;13790;43,489238;5,567429;La Fontaine
17 Place de L Hôtel de ville;Tournus;71700;46,5615175;4,9123816;brasserie des arcades
7 Allée des Marettes;Bourgoin-Jallieu;38300;45,5848287;5,2775164;Le Laladum
49 Cours Marc-Antoine Brillier;Vienne;38200;45,5219547;4,8729501;Le Grand Café
16 Rue Sedaine;Paris;75011;48,8557901;2,3721694;Salon de gourmet - Boutj'dao
11, faubourg Saint-Michel;Guérande;44350;47,32706;-2,42611;Le Clipper
22 Rue Pairolière;Nice;06300;43,6996555;7,2790588;L'Escalinada
22, rue de Ribosi Domaine des Duc;Léguevin;31490;43,60253541;1,257369995;L'Inizio
37, rue Malar;Paris;75007;48,85951239;2,306260109;Truffes Folies 7ème
45 Rue Saint-Charles;Toulouse;31000;43,6100461;1,4423975;Chez Riz
Rue Intérieure;Paris;75008;48,875994;2,3256054;Lazare
16 Rue de Tolbiac;Paris;75013;48,8298334;2,3746425;Khanchi
Quai la Pérouse;Saint-Laurent-du-Var;06700;43,65703731;7,183110237;Le Santana
93 Rue de la Victoire;Paris;75009;48,8747319;2,3307676;Les Comptoirs du Médòc
31 Avenue George V;Paris;75008;48,8687512;2,3001692;L'Orangerie - Four Seasons Hôtel George V
85, rue Saint Antoine;Paris;75004;48,85448;2,36269;Au bouquet Saint Paul
8 Rue du Plan d'Agde;Montpellier;34000;43,608295;3,875816;Dedee-Jacqueline
21 Rue de l'Horloge;Riom;63200;45,8946268;3,1137104;Le Flamboyant
99 Rue de la Pompe;Paris;75116;48,8650653;2,2783759;Le 99
Rue de l'Ouest;Le Cannet;06110;43,57305635;7,012969971;La Villa Archange
78, rue rue haute saint maurice;Chinon;37500;47,16706073;0,239759997;Les Années Trente
68 bis, avenue Jean Moulin;Paris;75014;48,82515;2,32029;Monteleone
104 Rue de Charonne;Paris;75011;48,8544932;2,3848872;l'Armagnac
1 Plage de L'Estaque;Marseille;13016;43,359548;5,317162;Le Bistrot du C.A.M
6 Rue Victor Hugo;Pantin;93500;48,895271;2,4017955;Le P'tit Classé
2 Rue Saint-Michel;Nancy;54000;48,6968658;6,1791565;Le Comptoir St Michel
20 Avenue de la Fossé des Pressoirs;Magny-le-Hongre;77700;48,8714898;2,8072643;Bar des Artistes
31 Avenue Jean Bart;Carry-le-Rouet;13620;43,3344694;5,1723098;La Crique
41, rue Dauphine;Paris;75006;48,85444501;2,339099884;Chez Gaandhi
"Lieu dit ""Les Terres Rouges""";Dizy;51530;49,06724074;3,961899996;Campanile Epernay Dizy
1, avenue Édouard VII;Pau;64000;43,29653485;-0,35868001;Le Jeu de Paume - Hôtel Parc Beaumont
3, boulevard du Maréchal de Lattre de Tassigny;Saumur;49400;47,26161221;-0,089040004;Restaurant - Brasserie les 2 Maisons
24, rue de Cotte;Paris;75012;48,8502331;2,378240108;Miel et Paprika
9, avenue du Drapeau;Dijon;21000;47,33068;5,04352;L'Avenue
3 Rue de l'Isly;Paris;75008;48,8746444;2,3261032;l'Atelier Lazare
5 Rue Guy de Maupassant;Yvetot;76190;49,6182307;0,7531408;Ben Aqui
Le Bourg;Vézac;24220;44,83572459;1,164340019;Le Relais des Cinq Châteaux
9 Quai du Lazaret;Marseille;13002;43,306059;5,3649618;Maison Dolya
36 Boulevard de la Gare;Saint-Gratien;95210;48,9641657;2,2854138;La Medusa
96 Route du Polygone;Strasbourg;67100;48,5655504;7,7592903;Le Scala
9 Rue Denoyez;Paris;75020;48,8714891;2,3783827;Chez Trois
74 Rue de France;Nice;06000;43,6949262;7,2546847;"Sable d&apos;or"
11, passage Central;Mulhouse;68100;47,74755;7,34072;La Cigogne Heureuse
115 Avenue de la Division Leclerc;Enghien-les-Bains;95880;48,9727918;2,31;Il Capriccio
9 Chemin Canto Cigalo;Saint-Rémy-de-Provence;13210;43,7854866;4,8411813;Bistro de Valrugues
105 Avenue des Célestins;Vichy;03200;46,1261822;3,4300878;LE GAULOIS
51 Avenue du Dr Arnold Netter;Paris;75012;48,8441295;2,4052605;Com’a la Maison
18, rue des Combattants;La Ciotat;13600;43,17443178;5,60777998;La Sardine de Marseille
17, rue des Petits-Champs;Paris;75001;48,8664839;2,338000059;Le Comptoir des Petits Champs
94 Rue du Général de Gaulle;Village-Neuf;68128;47,6053287;7,5709284;Restaurant Le Bouquet Garni
"16 Avenue de l'Opéra";Paris;75001;48,8654874;2,3348924;Brasserie Réjane
6, place Sainte Marie;Rully;71150;46,8752134;4,739649773;Le Vendangerot
3, rue du Marais;Villers-Saint-Paul;60870;48,1129371;-1,618512;Campanile Creil - Villers-Saint-Paul
14 Avenue Claude Vellefaux;Paris;75010;48,872904;2,3701246;Test
28 Rue du Château;Le Monêtier-les-Bains;05220;44,9766998;6,5076819;Le Montagn’art
Route nationale 13;Chambourcy;78240;48,9082455;2,0337238;La Table Italienne
3, boulevard de la Madeleine;Paris;75001;48,86983881;2,327330112;Lavinia Madeleine
5 Rue Gioffredo;Nice;06000;43,7024069;7,2767961;Toi & Moi
2 Passage Malaussena;Nice;06000;43,7080459;7,2629105;La Bohème Bistro
3 place Pierre Renaudel Quartier Saint Croix;Bordeaux;33800;44,83125826;-0,561720014;Le Café du Théâtre
7, Rue des Paradoux;Toulouse;31000;43,59833644;1,442680001;Le Point d'Ogre
499 Rue Saint-Bernard;Menthon-Saint-Bernard;74290;45,8591132;6,1965851;L'Osmose du Lac
1 Place Turenne;Turckheim;68230;48,0866344;7,2781693;Le Stammtisch
146, avenue de la Division Leclerc;Montmorency;95160;48,97258;2,31045;Empyre
7 Rue Mathieu;Mâcon;71000;46,3064183;4,8301566;Royal Bangkok
41, quai Pierre Scize;Lyon;69009;45,76668739;4,816359997;L'Adresse
32 Avenue des Carrés;Annecy-le-Vieux;74940;45,9131874;6,1425322;IN BOCCALUPO
10, rue Marius Jacotot;Puteaux;92800;48,88332144;2,240230083;Le Clos de Jô
46 Rue des Hauts Pavés;Nantes;44000;47,2249543;-1,5653868;Panda & Co
1 Rue Villedo;Paris;75001;48,865974;2,336917;Kunitoraya
Z.A. du Roubian;Tarascon;13150;43,79008397;4,685029984;O'Café d'Elie
Quartier La Robéyère;Embrun;05200;44,56049526;6,488140106;Hôtel Restaurant Spa La Robéyère
58 Rue Franklin;Lyon;69002;45,7514226;4,8318111;LaFourchette Manager Académie - Lyon - Ecole Vatel
9 Avenue Emile Evellier;Grézieu-la-Varenne;69290;45,7480129;4,6925343;Toane restaurant
9 Boulevard de Port-Royal;Paris;75013;48,8367914;2,3499808;Au Petit Marguery - Rive Gauche
15 Rue Corneille;Toulon;83000;43,1238906;5,9335764;La Cantine
131 Boulevard Victor Hugo;Saint-Ouen;93400;48,9052373;2,323479;New Tokyo
70 Avenue du Bourgailh;Pessac;33600;44,80928;-0,6627496;Le Bourgailh
4-6 place Emile Cresp;Montrouge;92120;48,819182;2,319183;La Quincaillerie Générale
119 Route de Vienne;Lyon;69008;45,7372412;4,8527009;VCB Viens Chercher Bonheur
49 Rue de Turenne;Paris;75003;48,858063;2,3643307;Café des Musées
192, avenue Victor-Hugo;Paris;75016;48,86510373;2,274280071;Hansan
Paris;Paris;NULL;48,8657844;2,3073141;Louise's
16 Rue de la Buffa;Nice;06000;43,697266;7,2622222;Funsushi
46, rue Jules Simon;Lorient;56100;47,75753453;-3,367280006;Le Jardin Gourmand
45 Avenue de la Libération;Le Coteau;42120;46,0295518;4,084272;LabeVie chez Cruz
2, Rue François Mouthon;Paris;75015;48,83911;2,29145;Sagarmatha
200 Route de Blagnac;Toulouse;31200;43,62553;1,402817;Les Jardins de L 'olympe
5 Route de la Corniche;Rolleboise;78270;49,0225432;1,6098942;Le Panoramique du Domaine de la Corniche
4 Rue de la Gare;Guebwiller;68500;47,9070861;7,2162888;Hôtel Restaurant de L'Ange
26 Place de l'Horloge;Avignon;84000;43,949698;4,806385;Brasserie de l'Horloge
20 Rue du Doyen;Boulogne-sur-Mer;62200;50,7227154;1,6068808;O Sud
97, rue des Dames;Paris;75017;48,88384822;2,316580057;Nove Sette
48 Rue Caulaincourt;Paris;75018;48,8889874;2,334805;Le Népo
8 Rue Gioffredo;Nice;06000;43,7023249;7,2764081;La Chaise Bleue Gourmande
118 Rue des Moines;Paris;75017;48,8931825;2,3234499;El Rinconcito
Rue des Lices;Angers;49100;47,4685042;-0,5541583;Trésors du Liban
3 Boulevard Victor;Paris;75015;48,8357938;2,2803434;Meyliwa
34, rue d'Estienne d'Orves;Le Pré-Saint-Gervais;93310;48,88585;2,40063;Le Pré en Bulles - Chez Martine
159 Rue de Crimée;Paris;75019;48,8885115;2,3790134;Le Belushi's Canal
66 Avenue du Général Leclerc;Villemur-sur-Tarn;31340;43,8517821;1,4972601;L'Etang d'Ô
6 Place de la Libération;Génicourt;95650;49,0890209;2,0680968;L'Arret
6, Place Garibaldi;Nice;06300;43,70149;7,279899;Le Paradis du Fruit
10 Cours Julien;Marseille;13001;43,2957094;5,3820622;kaz kréol
58, avenue des Gobelins;Paris;75013;48,83358279;2,353929996;Casa France Espagne
101 rue de Colombes;Courbevoie;92400;48,90403254;2,255170107;Chez Serge
25 Rue Bergère;Paris;75009;48,8724174;2,3446242;AU LOUP
22 Place du Forum;Reims;51100;49,2565496;4,0347939;Vapeurs et Gourmandises
215 Avenue de la Californie;Nice;06200;43,680369;7,2303423;Le Mesclun
4 Rue des Vanniers;Douzy;08140;49,6698792;5,0430372;Le coeur d or
14 Rue d'Alexandrie;Paris;75002;48,8683062;2,3503816;Baretto di Edgar
32 Cours de la République;Blaye;33390;45,129652;-0,6613486;A Napoli
9 Place du Général Leclerc;Fontenay-sous-Bois;94120;48,847224;2,4716446;Fortai
Place Paul Isnard;Vallauris;06220;43,5796475;7,052649975;Café Marianne
5, avenue de Saint-Germain;Maisons-Laffitte;78600;48,94450701;2,142869949;La Plancha
129, rue Lauriston;Paris;75016;48,86543246;2,285419941;La Table Lauriston
1, rue du Petit Pont;Paris;75005;48,85280095;2,346610069;Le Petit Pont
28, quai Saint-Jean;Blois;41000;47,58906188;1,340540051;Le Quai Saint-Jean
5, rue Michelet;Dijon;21000;47,32116369;5,03553009;Restaurant William Frachot
3 Rue Montalembert;Paris;75007;48,8567042;2,3277805;Restaurant de l'Hôtel Montalembert
6 Rue du Port;Giffaumont-Champaubert;51290;48,552237;4,7589442;Le Comptoir JOA - Lac du Der
261, avenue Gambetta;Paris;75020;48,87694185;2,406529903;Au Métro des Lilas
25, montée Cardinal Decourtray;Lyon;69005;45,76157;4,82183;Le Coquemar
83, rue Laugier;Paris;75017;48,88503222;2,291140079;L'Entredgeu
Maison Neuve 16410 Vouzan;Vouzan;16410;45,5823381;0,3442841;Auberge de l'Orée des bois
5 Rue de la Paix;Paris;75002;48,8687456;2,330524;Pur' - Jean-François Rouquette - Park Hyatt Paris-Vendôme
97, rue de Charonne;Paris;75011;48,85437975;2,383450031;Auciel
23, rue d'Aguesseau;Boulogne-Billancourt;92100;48,8441129;2,23642993;A Tavola
1 bis, rue des Colonels Renard;Paris;75017;48,87779736;2,290930033;Darjeeling
355 rue du centre aéré;Saint-Paul-lès-Dax;40990;43,7285257;-1,0625886;Le 355
Place Granet;Belgentier;83210;43,24527497;6,000319958;Le Moulin du Gapeau
46 Rue des Vignoles;Paris;75020;48,8544957;2,4006969;Le 20ème Art
119-121 Avenue Pierre Brossolette;Montrouge;92120;48,81709;2,3074482;Hongfulin
59, rue Servan;Paris;75011;48,86385401;2,381200075;Le Diamant de Paris
2 Rue Fénelon;Tournus;71700;46,5651443;4,9092685;le fenelon
16 Rue des Archives;Paris;75004;48,8576911;2,3548054;Le Ju'
Allée jacques duclos;Boulazac;24750;45,1849;0,77687;OKI
13, rue Louison Bobet;Biarritz;64200;43,48789;-1,55442;Restaurant Le B - Sofitel Biarritz Le Miramar Thalassa sea & spa
33, Avenue de la Mouscane;Montech;82700;43,96255;1,24139;Le Marmiton
66 Rue Grande;Moret-sur-Loing;77250;48,37264;2,8183944;Porte de Bourgogne
15 Rue Letort;Paris;75018;48,8943618;2,3429737;Jimmy 2 Fois
4 Rue Saint-Laurent;Paris;75010;48,8755895;2,3586753;Les Orientalistes
34, place aux Huiles;Marseille;13001;43,29245897;5,371819973;Casa del Campo Marseille
13 Rue de la Fontaine de Chalet;Massiac;15500;45,2739007;3,2014136;Auberge de Chalet
Domaine de Massane;Baillargues;34670;43,6492236;4,004990101;Le 360 - Domaine de Massane
26 Rue Pierre Brossolette;Asnières-sur-Oise;95270;49,1323375;2,3549897;Aux Bonnes m'Asnieres - Lacroute & Buffet
186 Avenue Charles de Gaulle;Neuilly-sur-Seine;92200;48,8858631;2,2581489;Grill Croûte
9 Rue du Grand Pré;Lourmarin;84160;43,76495895;5,364029884;L'antiquaire
36 Rue Saint-Georges;Rennes;35000;48,1118702;-1,6757351;Le Café des Bains
37 Boulevard du Général Leclerc;Roubaix;59100;50,6901586;3,1771582;Flam's Roubaix- Ibis Roubaix
115 Rue Jules Ferry;Saint-Brieuc;22000;48,5002999;-2,7697851;gentile
1 Rue du Pontin;Nice;06300;43,6973226;7,2748908;100% TACOS
33, rue de la Chapelle Saint Martin;Haute-Goulaine;44115;47,19058;-1,42972;Manoir de la Boulaie - Laurent Saudeau
22, avenue Puvis de Chavannes;Courbevoie;92400;48,89864116;2,233989954;Le Rihab
2, rue des Trois Bornes;Paris;75011;48,8664839;2,372210026;Les P’tites Indécises
108, avenue de Nice;Cagnes-sur-Mer;06800;43,66058365;7,177259922;Le Vietnam
30 Avenue du Maréchal de Lattre de Tassigny;Pessac;33600;44,78043;-0,6938605;Le Bastan
2, place de l'Hôpital;Lyon;69002;45,75911;4,83609;L'Hostel
138 Quai du Port;Marseille;13002;43,295949;5,367486;Chez Madie les galinettes
52 Avenue de la Porte de Villiers;Levallois-Perret;92300;48,8862768;2,2843573;L'Idée
32, place de Provence;Guillaumes;06470;44,08991947;6,853459835;Le Central
35, rue du Loup;Bordeaux;33000;44,83792381;-0,573040009;Croc Loup
73, avenue Marceau;Paris;75016;48,87102314;2,297139883;Comptoir de l'arc
Rue des Frênes;Pannes;45700;47,992004;2,668285;LA TABLE DE MARIE
3, rue du Pas Saint-Georges;Bordeaux;33000;44,8402636;-0,571895003;L'Embarcadère
10, cours Gambetta;Tarbes;65000;43,23209125;0,073480003;La Brasserie
1 Rue Alfred Nobel;Sainte-Marie;66470;42,731302;3,0242835;Can Mylia
34 Rue de Verdun;Suresnes;92150;48,8725451;2,2290803;Le Cheval Blanc
62 Rue Breteuil;Marseille;13006;43,288334;5,3765665;Studio13
3, place Sainte Catherine;Lille;59000;50,63920624;3,056940079;L´Etable
219 Boulevard de Tournai;Villeneuve-d'Ascq;59650;50,6131204;3,1328558;Beers & Co - Villeneuve
20 place Bellecour;Lyon;69002;45,75643337;4,833079815;L'Institut Paul Bocuse - Restaurant Ecole
3 Avenue de Bohlen;Vaulx-en-Velin;69120;45,7649676;4,9205264;Tommy's Diner Lyon Carré de Soie
561, route du Bout Fleuri;Paluel;76450;49,84497902;0,649240017;L'Assiette Gourmande
34, rue Etienne d'Orves;Le Pré-Saint-Gervais;93310;48,88575465;2,400579929;Le Pré en Bulles
87 Rue Jean de la Fontaine;Paris;75016;48,8482828;2,265481;Le beau resto
69, rue de Croulebarbe;Paris;75013;48,83081809;2,348550081;Le Grain Magique
51 Rue de Merlan;Noisy-le-Sec;93130;48,8905496;2,4660109;Le chacal grill
13 Rue des Filatiers;Toulouse;31000;43,5983716;1,4441205;Le Point Gourmet
2 Boulevard de la République;Saint-Cloud;92210;48,8427842;2,207511;Le Quosy
212 bis boulevard Pereire;Paris;75017;48,8797433;2,286917;Il Grano
6 Avenue Charles de Gaulle;Rochefort;17300;45,9351387;-0,960147;le litana
158 Rue de Bourgogne;Orléans;45000;47,9005304;1,9119122;Shah Jahan
148 Boulevard Jean Jaurès;Houilles;78800;48,9222611;2,2036226;Kf Churrasco
173, boulevard Saint-Germain;Paris;75006;48,85425;2,33071;Ralph's
13, rue Maréchal Joffre;Aix-en-Provence;13100;43,52682348;5,453199863;Ferretti Ristorante
6, rue papillon;Paris;75009;48,87615;2,34772;Bistrot Papillon
18, boulevard Aristide Briand;Suresnes;92150;48,86319652;2,202460051;Le Kashmir
2622 Rue de Lille;Sainghin-en-Mélantois;59262;50,5916133;3,1534342;Les Arcades
161 Rue du Levant;Calvisson;30420;43,7826098;4,2019291;Sawasdee
1, rue Montesquieu;Nantes;44000;47,21306713;-1,565729976;Le Montesquieu
874, promenade Charles de Gaulle;Six-Fours-les-Plages;83140;43,09328381;5,842720032;La Pêche aux Moules
102 Avenue des Nations;Yutz;57970;49,3616831;6,1956785;Miel & Safran
5 Rue du Maréchal Juin;Strasbourg;67000;48,5784412;7,7604185;Zeste d'Asie
13 Place du Concert;Lille;59800;50,6421588;3,0607393;Ô! Concert
4 rue des Brioleurs;Saint-Gatien-des-Bois;14130;49,34725494;0,189950004;Le Michel's Clos Deauville Saint Gatien
16 Rue des Blanchers;Toulouse;31000;43,602406;1,4380529;Le Petit Marais
80B Rue de la République;Aubagne;13400;43,2900944;5,5712504;Corea Francesco
1 Rue Keller;Paris;75011;48,8535309;2,3767689;Le Souk Paris
81 Rue Léon Frot;Paris;75011;48,8576552;2,3843268;L'r De Rien
108, boulevard du Montparnasse;Paris;75014;48,84207434;2,329149961;Le Dôme
1, chemin de Vilaine;Buzançais;36500;46,88862;1,42182;L'Hermitage
Chemin du Chêne;"Civrieux-d'Azergues";69380;45,857884;4,706756;Ibowl
5, place Notre Dame du Mont;Marseille;13006;43,29209524;5,38383007;Sushi Yamato
69, rue des Dames;Paris;75017;48,88358483;2,320569992;Ripaille
"129 Cours de l'Argonne";Bordeaux;33000;44,826882;-0,5765883;La Dentellière
231, Avenue Porte des Alpes;Le Plan-du-Var;06670;43,85833529;7,197090149;Restaurant Cassini
22, rue Daubenton;Paris;75005;48,84138;2,35357;Allo Cury (Vijaya)
34 Rue Saint-Barthélémy;Melun;77000;48,5418432;2,6558847;Best of Bangkok
9 Place du Vieux Marché;Rouen;76000;49,4425858;1,0882469;Restaurant D'Eux-Mêmes
14, faubourg Rivotte;Besançon;25000;47,23222;6,03435;Au Bouchon Rivotte
18, rue Joseph Vernet;Avignon;84000;43,94954981;4,803750038;Les 5 Sens
69 Rue Guillaume Puy;Avignon;84000;43,9454089;4,8141872;La Folie des Sauges
24 Avenue de la République;Paris;75011;48,865961;2,3700854;Le Ryss Café
1, rue Damrémont;Paris;75018;48,88726719;2,332479954;Le Bistrot
64 Rue Daguerre;Paris;75014;48,835197;2,3266161;Septième Raffinement
62 Rue Césaria Évora;Paris;75019;48,8978109;2,3743553;Ellis Gourmet Burger Rosa Parks
39 Avenue Galois;Bourg-la-Reine;92340;48,7769155;2,3218269;Aux Saveurs De L'inde
45 Rue Brancion;Paris;75015;48,83358;2,3044599;La Toscane
5 Rue Ambroise Pauffert;Neuville-sur-Saône;69250;45,8759453;4,8403965;Comptoir Demange
5 Impasse des Sables;Merry-sur-Yonne;89660;47,5627219;3,6460498;Le Saussois
89 Rue Lemercier;Paris;75017;48,8887415;2,3198811;Cucucina
21, avenue Baille;Marseille;13006;43,28670841;5,386590004;Chez Domino
17 Rue Carnot;Bois-Colombes;92270;48,9135648;2,268689;DHAUTOT TFM3
8, rue Saint-Hilaire ( La-Varenne-Saint-Hilaire);Saint-Maur-des-Fossés;94210;48,79295312;2,514110088;Ty Breiz
97 Avenue d'Aquitaine;Carbon-Blanc;33560;44,8905414;-0,5066578;Tex Burger
8 Rue du Doyenné;Le Mans;72100;48,008595;0,198334;La Maison d'Elise
123 Rue des Landes;Plaisance-du-Touch;31830;43,5522157;1,2473234;Test de Chloé
52 Rue la Fayette;Paris;75009;48,8750213;2,3413186;Au General Lafayette
95 Rue Montaigne;Marseille;13012;43,3038428;5,4174268;Brasserie du Village
28 Avenue de Paris;Soisy-sous-Montmorency;95230;48,990314;2,2928492;Hippopotamus SOISY
130 Quai du Port;Marseille;13002;43,2960356;5,3677212;Carmine
15 Boulevard de la Corniche;Annecy;74000;45,8895923;6,1367603;La Rotonde des Trésoms
13, boulevard Carnot;Valbonne;06560;43,64249376;7,008130074;L'Elysée Carnot
42 Route de Galice;Aix-en-Provence;13090;43,5305815;5,4254627;Kyriad Prestige
17, rue Saint-Rémi;Bordeaux;33000;44,84139965;-0,571491003;Le Wok
3 Rue Amédée VIII de Savoie;Saint-Julien-en-Genevois;74160;46,1443809;6,0806463;restaurant le savoie
80, rue Meynadier Le Suquet;Cannes;06400;43,55160597;7,012000084;Aux Bons Enfants
140 Avenue de Saint-Ouen;Paris;75018;48,8964306;2,3287649;le milord
11 Rue Charles Pierrugues;Mandelieu-la-Napoule;06210;43,5233426;6,9405666;Le Neapolis
35 Rue de la Roquette;Paris-11E-Arrondissement;75011;48,8550846;2,3732492;Pizza Costa
Rue des Arceaux;Angoulême;16000;45,649125;0,157645;Les Jardins des Arceaux
20, rue des Halles;Paris;75001;48,85997166;2,346489906;La Factory
59, rue Boulainvilliers;Paris;75016;48,8575372;2,27466011;Le Bois le Vent
55, rue du Faubourg Montmartre;Paris;75009;48,87569243;2,340440035;Restaurant Paris 9
7 Avenue de Saint-Germain;Maisons-Laffitte;78600;48,9451232;2,1444525;Santa Monica
104, rue de Lille;Mouvaux;59420;50,69897298;3,132200003;La Pause
602 Rue Louis Saint-Just;Saint-Maximin;60740;49,2445581;2,4715564;Del Arte Creil Saint Maximin
2, place de Lisbonne - Centre Commercial Odysseum;Montpellier;34000;43,60543;3,92011;La Villa Tropézienne
58, rue Vasco de Gama;Paris;75015;48,83602;2,28423;Saint Mercure
10 Rue des Tonneliers;Bayonne;64100;43,4901122;-1,4736359;Talotegi
40 Route de Frangy;Meythet;74960;45,9149098;6,0921177;Brasserie Le Saint Georges
153 Rue de Lourmel;Paris;75015;48,8400099;2,2835274;Saturne
29 Rue de l'Exposition;Paris;75007;48,8570844;2,3034952;Pertinence
"Lieu dit ""La Fabrègues""";Estaing;12190;44,54528328;2,694999933;Restaurant du Manoir de la Fabrègues
2 Place de la Chapelle Neuve;Montpellier;34000;43,6131483;3,8789117;Duo
4 Cours Jean Jaurès;Grenoble;38000;45,1915211;5,7199009;Le Dromadaire
3 Rue Basse;Verneuil-sur-Seine;78480;48,9806312;1,9759812;Sol y Luna
8, rue Majour;Brive-la-Gaillarde;19100;45,15977;1,53171;Le 6eme sens
3, rue des Faussets;Bordeaux;33000;44,8407613;-0,570429981;Bengoshi
2 Rue Ramey;Paris;75018;48,8872645;2,3475986;la Traversée
38, rue de Cambrai;Lille;59000;50,62423573;3,071229935;Au Blueberry
22 Place Henri Brousse;Meudon;92190;48,8076134;2,2414653;Le Cèdre - Meudon
36 Rue de Bagnolet;Paris;75020;48,8568991;2,3979538;Totorino
43, Rue Castillon;Toulon;83000;43,10994;5,94047;Le Patin Couffin
37 6-39, rue Pierre-Henri Mauger;Contres;41700;47,41889401;1,428660035;Les Rois de France
30 Passage de la Bourgade;Biot;06410;43,6277148;7,0974077;Le Jarrier
168 Cours Berriat;Grenoble;38000;45,1891747;5,7051839;Badine
20 Place Charles de Gaulle;Saint-Germain-en-Laye;78100;48,8972216;2,09512;Pub 78
132 Rue Lecourbe;Paris;75015;48,8422402;2,3009722;HB HIT Burger
90 Cours de Vincennes;Paris;75012;48,8468523;2,4074667;Stracciatella
27 Avenue Armand Guillebaud;Antony;92160;48,7490658;2,3065377;Au Four du Liban
6, rue Etienne Marcel;Paris;75002;48,86372101;2,350389957;Le Cercle
43 Avenue de la Gare;Sarlat-la-Canéda;24200;44,8777429;1,2194146;Le Grand Bleu
33 Rue de la Borie;Égletons;19300;45,4007659;2,0470465;Le 19 Vin
5, grand Rue;Logelheim;68280;48,02106688;7,407979965;Hôtel - Restaurant Le Coin des Anges
3 Rue du Port;Cherbourg-en-Cotentin;50100;49,6404046;-1,6224347;Le Comptoir Libanais
117, rue Monge;Paris;75005;48,83917703;2,350980043;Founti Agadir
15 Avenue de Saria;Serris;77700;48,8415478;2,7908564;Chez Meiling
58 Rue du Maréchal Foch;Loos;59120;50,6153656;3,0178955;Pizza Fissa
8 Rue Amédée Bolle;Sainte-Croix-en-Plaine;68127;48,0169599;7,3768568;Bellini
43, rue du Général de Gaulle;Niederbronn-les-Bains;67110;48,95027;7,64585;Au Caveau de l'Étable
7, place Surian;Vence;06140;43,72190073;7,11383009;La Table de Domi
27, rue Thiers;Givet;08600;50,13771;4,82555;Le Nord
9, place des Martyrs de la Résistance;Lesparre-Médoc;33340;45,30436;-0,94549;Restaurant de la Gare
4 Rue Violet;Paris;75015;48,849632;2,294793;Darai
7, rue Brochant;Paris;75017;48,88838589;2,317029953;Resto non publié
Le Moulin;Conques;12320;44,5806615;2,4406387;LA TABLE D'HERVE BUSSET
251 Rue Gallieni;Boulogne-Billancourt;92100;48,8348259;2,2271599;Johan Grill
46 Passage Clemenceau;Vichy;03200;46,1251216;3,4228877;Crêperie Clémentine
7 Rue de la Duchesse d'Uzès;Boursault;51480;49,0604219;3,8465255;Le P'tit Boursault
12 Quai des Célestins;Paris;75004;48,8522061;2,361439;Le Petit Celestin
2 Rue Jean Corringer;Vigneux-sur-Seine;91270;48,7061451;2,4233112;Kreol'café
12 Rue Dante;Nice;06000;43,6957745;7,2541409;Ogram
1 Rue du Faubourg Saint-Antoine;Paris;75011;48,8533223;2,3705113;Café Rey
Route de Manosque;La Bastide-des-Jourdans;84240;43,786117;5,640144;ar tapas EL TORO
46, rue de la Balance;Avignon;84000;43,95192814;4,80576992;N°46 Brunel, bistro bar à vin
27 Grand Rue;Lodève;34700;43,731001;3,319853;Restaurant Minuscule
275, route de Saint Antoine Ginestière;Nice;06200;43,7069372;7,217169762;Chez Simon
10-12, boulevard Maréchal Foch;Beaune;21200;47,02695864;4,836249828;Hostellerie le Cèdre
Place Maurice Faure;Romans-sur-Isère;26100;45,0428864;5,0491298;Au Petit Maxime
18, place du Château;Jonzac;17500;45,44564816;-0,431620002;Le Coq d'Or
27 Boulevard de la République;Chalon-sur-Saône;71100;46,7832429;4,8492714;i Touch Coffee
55 Boulevard de Vaugirard;Paris;75015;48,8407218;2,3166571;Le Dax
28 Rue du Cardinal Lemoine;Paris;75005;48,8480959;2,3526928;Paradis Latin Cabaret
8 Rue botanique;Angers;49100;47,4740964;-0,5473845;Sawasdee Bangkok
13 Rue Lagrange;Paris;75005;48,8511399;2,3483173;Le palais de la Griserie
Route Nationale 96 quartier des vieilles tuileries;Peyrolles-en-Provence;13860;43,6477839;5,5985105;L’As-Os
20 Rue Jules Horowitz;Saint Paul lès Durance;13115;43,6937484;5,7338415;L'urban
5, rue des Vieux Moulins;Meaux;77100;48,95977;2,87724;La Table à Crêpes
5 Rue Marchand;Corbeil-Essonnes;91100;48,6040986;2,4670942;Le Palais de Ouarzazate
29 rue Sambre-et-Meuse;Paris;75010;48,87457596;2,372980118;Barak
Boulevard Louison Bobet;Quiberon;56170;47,4807244;-3,1042888;Le Delight
La Cerce;Sauvigny-le-Bois;89200;47,49739273;3,967479944;Campanile Avallon